start=new Date('2023-03-13T00:00:00.000Z').valueOf();
sats=[{"EPOCH":"2023-03-12T03:05:20.239008","REF_FRAME":"TEME","RA_OF_ASC_NODE":"300.8070","MEAN_MOTION_DDOT":"0.0000000000000","MEAN_ELEMENT_THEORY":"SGP4","ELEMENT_SET_NO":"999","EPHEMERIS_TYPE":"0","MEAN_MOTION_DOT":"0.00040012","MEAN_MOTION":"15.06374952","PERIOD":"95.594","REV_AT_EPOCH":"11515","BSTAR":"0.00269170000000","TLE_LINE1":"1 47620U 21012A   23071.12870647  .00040012  00000-0  26917-2 0  9997","OBJECT_TYPE":"PAYLOAD","CENTER_NAME":"EARTH","ECCENTRICITY":"0.00011250","MEAN_ANOMALY":"226.0231","SEMIMAJOR_AXIS":"6925.425","DECAY_DATE":null,"TLE_LINE2":"2 47620  53.0538 300.8070 0001125 134.0851 226.0231 15.06374952115155","OBJECT_ID":"2021-012A","COUNTRY_CODE":"US","FILE":"3858534","NORAD_CAT_ID":"47620","OBJECT_NAME":"STARLINK-1528","INCLINATION":"53.0538","LAUNCH_DATE":"2021-02-16","GP_ID":"227930816","SITE":"AFETR","CLASSIFICATION_TYPE":"U","RCS_SIZE":"LARGE","PERIAPSIS":"546.511","ARG_OF_PERICENTER":"134.0851","TIME_SYSTEM":"UTC","APOAPSIS":"548.069"},{"ARG_OF_PERICENTER":"69.7133","APOAPSIS":"547.855","TIME_SYSTEM":"UTC","GP_ID":"227960804","INCLINATION":"53.0545","OBJECT_NAME":"STARLINK-1609","LAUNCH_DATE":"2021-02-16","PERIAPSIS":"546.409","SITE":"AFETR","CLASSIFICATION_TYPE":"U","RCS_SIZE":"LARGE","NORAD_CAT_ID":"47621","OBJECT_ID":"2021-012B","COUNTRY_CODE":"US","FILE":"3858743","ECCENTRICITY":"0.00010440","MEAN_ANOMALY":"290.3968","TLE_LINE2":"2 47621  53.0545 298.4526 0001044  69.7133 290.3968 15.06426530115240","SEMIMAJOR_AXIS":"6925.267","DECAY_DATE":null,"REV_AT_EPOCH":"11524","PERIOD":"95.590","MEAN_MOTION":"15.06426530","OBJECT_TYPE":"PAYLOAD","CENTER_NAME":"EARTH","BSTAR":"0.00068930000000","TLE_LINE1":"1 47621U 21012B   23071.65209432  .00010008  00000-0  68930-3 0  9998","MEAN_MOTION_DOT":"0.00010008","EPHEMERIS_TYPE":"0","ELEMENT_SET_NO":"999","RA_OF_ASC_NODE":"298.4526","REF_FRAME":"TEME","EPOCH":"2023-03-12T15:39:00.949248","MEAN_MOTION_DDOT":"0.0000000000000","MEAN_ELEMENT_THEORY":"SGP4"},{"ECCENTRICITY":"0.00012620","MEAN_ANOMALY":"292.5985","SEMIMAJOR_AXIS":"6925.256","DECAY_DATE":null,"TLE_LINE2":"2 47622  53.0523 301.1506 0001262  67.5138 292.5985 15.06430339115144","MEAN_MOTION":"15.06430339","PERIOD":"95.590","REV_AT_EPOCH":"11514","BSTAR":"0.00133520000000","TLE_LINE1":"1 47622U 21012C   23071.05034555  .00019678  00000-0  13352-2 0  9994","OBJECT_TYPE":"PAYLOAD","CENTER_NAME":"EARTH","ELEMENT_SET_NO":"999","MEAN_MOTION_DOT":"0.00019678","EPHEMERIS_TYPE":"0","REF_FRAME":"TEME","RA_OF_ASC_NODE":"301.1506","EPOCH":"2023-03-12T01:12:29.855520","MEAN_MOTION_DDOT":"0.0000000000000","MEAN_ELEMENT_THEORY":"SGP4","ARG_OF_PERICENTER":"67.5138","TIME_SYSTEM":"UTC","APOAPSIS":"547.995","INCLINATION":"53.0523","OBJECT_NAME":"STARLINK-1645","LAUNCH_DATE":"2021-02-16","GP_ID":"227929837","SITE":"AFETR","CLASSIFICATION_TYPE":"U","RCS_SIZE":"LARGE","PERIAPSIS":"546.247","NORAD_CAT_ID":"47622","OBJECT_ID":"2021-012C","COUNTRY_CODE":"US","FILE":"3858534"},{"SEMIMAJOR_AXIS":"6925.341","DECAY_DATE":null,"TLE_LINE2":"2 47623  53.0498 233.7175 0001206  74.4304 285.6817 15.06402624116142","ECCENTRICITY":"0.00012060","MEAN_ANOMALY":"285.6817","BSTAR":"-0.00013791000000","TLE_LINE1":"1 47623U 21012D   23071.59358442 -.00002335  00000-0 -13791-3 0  9990","OBJECT_TYPE":"PAYLOAD","CENTER_NAME":"EARTH","PERIOD":"95.592","MEAN_MOTION":"15.06402624","REV_AT_EPOCH":"11614","ELEMENT_SET_NO":"999","EPHEMERIS_TYPE":"0","MEAN_MOTION_DOT":"-0.00002335","MEAN_MOTION_DDOT":"0.0000000000000","MEAN_ELEMENT_THEORY":"SGP4","REF_FRAME":"TEME","RA_OF_ASC_NODE":"233.7175","EPOCH":"2023-03-12T14:14:45.693888","TIME_SYSTEM":"UTC","APOAPSIS":"548.041","ARG_OF_PERICENTER":"74.4304","SITE":"AFETR","CLASSIFICATION_TYPE":"U","RCS_SIZE":"LARGE","PERIAPSIS":"546.370","INCLINATION":"53.0498","OBJECT_NAME":"STARLINK-1655","LAUNCH_DATE":"2021-02-16","GP_ID":"227962305","NORAD_CAT_ID":"47623","COUNTRY_CODE":"US","FILE":"3858743","OBJECT_ID":"2021-012D"},{"REV_AT_EPOCH":"11557","PERIOD":"95.591","MEAN_MOTION":"15.06412222","CENTER_NAME":"EARTH","OBJECT_TYPE":"PAYLOAD","TLE_LINE1":"1 47624U 21012E   23071.91933420  .00024575  00000-0  16624-2 0  9997","BSTAR":"0.00166240000000","MEAN_ANOMALY":"279.8544","ECCENTRICITY":"0.00009910","TLE_LINE2":"2 47624  53.0525 277.2563 0000991  80.2557 279.8544 15.06412222115576","DECAY_DATE":null,"SEMIMAJOR_AXIS":"6925.311","REF_FRAME":"TEME","EPOCH":"2023-03-12T22:03:50.474880","RA_OF_ASC_NODE":"277.2563","MEAN_ELEMENT_THEORY":"SGP4","MEAN_MOTION_DDOT":"0.0000000000000","EPHEMERIS_TYPE":"0","MEAN_MOTION_DOT":"0.00024575","ELEMENT_SET_NO":"999","GP_ID":"227962056","LAUNCH_DATE":"2021-02-16","OBJECT_NAME":"STARLINK-1669","INCLINATION":"53.0525","PERIAPSIS":"546.490","RCS_SIZE":"LARGE","SITE":"AFETR","CLASSIFICATION_TYPE":"U","ARG_OF_PERICENTER":"80.2557","APOAPSIS":"547.862","TIME_SYSTEM":"UTC","OBJECT_ID":"2021-012E","FILE":"3858743","COUNTRY_CODE":"US","NORAD_CAT_ID":"47624"},{"ELEMENT_SET_NO":"999","MEAN_MOTION_DOT":"0.00006301","EPHEMERIS_TYPE":"0","EPOCH":"2023-03-12T02:58:38.790912","RA_OF_ASC_NODE":"300.8144","REF_FRAME":"TEME","MEAN_MOTION_DDOT":"0.0000000000000","MEAN_ELEMENT_THEORY":"SGP4","MEAN_ANOMALY":"245.7170","ECCENTRICITY":"0.00012820","DECAY_DATE":null,"SEMIMAJOR_AXIS":"6925.301","TLE_LINE2":"2 47625  53.0547 300.8144 0001282 114.3953 245.7170 15.06415551115151","MEAN_MOTION":"15.06415551","PERIOD":"95.591","REV_AT_EPOCH":"11515","TLE_LINE1":"1 47625U 21012F   23071.12406008  .00006301  00000-0  44132-3 0  9991","BSTAR":"0.00044132000000","CENTER_NAME":"EARTH","OBJECT_TYPE":"PAYLOAD","NORAD_CAT_ID":"47625","OBJECT_ID":"2021-012F","FILE":"3858534","COUNTRY_CODE":"US","ARG_OF_PERICENTER":"114.3953","TIME_SYSTEM":"UTC","APOAPSIS":"548.054","LAUNCH_DATE":"2021-02-16","OBJECT_NAME":"STARLINK-1704","INCLINATION":"53.0547","GP_ID":"227930581","RCS_SIZE":"LARGE","SITE":"AFETR","CLASSIFICATION_TYPE":"U","PERIAPSIS":"546.278"},{"DECAY_DATE":null,"SEMIMAJOR_AXIS":"6925.338","TLE_LINE2":"2 47626  53.0518 297.6153 0001105  89.9987 270.1129 15.06403442115265","MEAN_ANOMALY":"270.1129","ECCENTRICITY":"0.00011050","TLE_LINE1":"1 47626U 21012G   23071.84010011  .00041823  00000-0  28098-2 0  9996","BSTAR":"0.00280980000000","CENTER_NAME":"EARTH","OBJECT_TYPE":"PAYLOAD","PERIOD":"95.592","MEAN_MOTION":"15.06403442","REV_AT_EPOCH":"11526","ELEMENT_SET_NO":"999","EPHEMERIS_TYPE":"0","MEAN_MOTION_DOT":"0.00041823","MEAN_MOTION_DDOT":"0.0000000000000","MEAN_ELEMENT_THEORY":"SGP4","RA_OF_ASC_NODE":"297.6153","EPOCH":"2023-03-12T20:09:44.649504","REF_FRAME":"TEME","TIME_SYSTEM":"UTC","APOAPSIS":"547.968","ARG_OF_PERICENTER":"89.9987","RCS_SIZE":"LARGE","SITE":"AFETR","CLASSIFICATION_TYPE":"U","PERIAPSIS":"546.438","LAUNCH_DATE":"2021-02-16","OBJECT_NAME":"STARLINK-1761","INCLINATION":"53.0518","GP_ID":"227961554","NORAD_CAT_ID":"47626","FILE":"3858743","COUNTRY_CODE":"US","OBJECT_ID":"2021-012G"},{"REV_AT_EPOCH":"11658","MEAN_MOTION":"15.06391936","PERIOD":"95.593","OBJECT_TYPE":"PAYLOAD","CENTER_NAME":"EARTH","BSTAR":"0.00062343000000","TLE_LINE1":"1 47627U 21012H   23071.91703246  .00009015  00000-0  62343-3 0  9993","ECCENTRICITY":"0.00012800","MEAN_ANOMALY":"264.6086","TLE_LINE2":"2 47627  53.0522 202.2653 0001280  95.5049 264.6086 15.06391936116584","SEMIMAJOR_AXIS":"6925.373","DECAY_DATE":null,"RA_OF_ASC_NODE":"202.2653","EPOCH":"2023-03-12T22:00:31.604544","REF_FRAME":"TEME","MEAN_MOTION_DDOT":"0.0000000000000","MEAN_ELEMENT_THEORY":"SGP4","MEAN_MOTION_DOT":"0.00009015","EPHEMERIS_TYPE":"0","ELEMENT_SET_NO":"999","GP_ID":"227961806","OBJECT_NAME":"STARLINK-1972","INCLINATION":"53.0522","LAUNCH_DATE":"2021-02-16","PERIAPSIS":"546.352","CLASSIFICATION_TYPE":"U","SITE":"AFETR","RCS_SIZE":"LARGE","ARG_OF_PERICENTER":"95.5049","APOAPSIS":"548.125","TIME_SYSTEM":"UTC","OBJECT_ID":"2021-012H","COUNTRY_CODE":"US","FILE":"3858743","NORAD_CAT_ID":"47627"},{"PERIAPSIS":"546.501","RCS_SIZE":"LARGE","SITE":"AFETR","CLASSIFICATION_TYPE":"U","GP_ID":"227930817","LAUNCH_DATE":"2021-02-16","OBJECT_NAME":"STARLINK-1973","INCLINATION":"53.0530","APOAPSIS":"547.901","TIME_SYSTEM":"UTC","ARG_OF_PERICENTER":"112.5138","FILE":"3858534","COUNTRY_CODE":"US","OBJECT_ID":"2021-012J","NORAD_CAT_ID":"47628","CENTER_NAME":"EARTH","OBJECT_TYPE":"PAYLOAD","TLE_LINE1":"1 47628U 21012J   23071.01349043  .00008094  00000-0  56158-3 0  9999","BSTAR":"0.00056158000000","REV_AT_EPOCH":"11514","MEAN_MOTION":"15.06404129","PERIOD":"95.592","TLE_LINE2":"2 47628  53.0530 301.3109 0001011 112.5138 247.5958 15.06404129115140","DECAY_DATE":null,"SEMIMAJOR_AXIS":"6925.336","MEAN_ANOMALY":"247.5958","ECCENTRICITY":"0.00010110","MEAN_ELEMENT_THEORY":"SGP4","MEAN_MOTION_DDOT":"0.0000000000000","RA_OF_ASC_NODE":"301.3109","REF_FRAME":"TEME","EPOCH":"2023-03-12T00:19:25.573152","MEAN_MOTION_DOT":"0.00008094","EPHEMERIS_TYPE":"0","ELEMENT_SET_NO":"999"},{"MEAN_MOTION_DOT":"-0.00014572","EPHEMERIS_TYPE":"0","ELEMENT_SET_NO":"999","REF_FRAME":"TEME","RA_OF_ASC_NODE":"178.7194","EPOCH":"2023-03-12T14:14:09.044736","MEAN_MOTION_DDOT":"0.0000000000000","MEAN_ELEMENT_THEORY":"SGP4","ECCENTRICITY":"0.00007260","MEAN_ANOMALY":"266.7643","TLE_LINE2":"2 47629  53.0526 178.7194 0000726  93.3429 266.7643 15.06363795116897","SEMIMAJOR_AXIS":"6925.460","DECAY_DATE":null,"REV_AT_EPOCH":"11689","PERIOD":"95.594","MEAN_MOTION":"15.06363795","OBJECT_TYPE":"PAYLOAD","CENTER_NAME":"EARTH","BSTAR":"-0.00096234000000","TLE_LINE1":"1 47629U 21012K   23071.59316024 -.00014572  00000-0 -96234-3 0  9995","NORAD_CAT_ID":"47629","OBJECT_ID":"2021-012K","COUNTRY_CODE":"US","FILE":"3858743","ARG_OF_PERICENTER":"93.3429","APOAPSIS":"547.827","TIME_SYSTEM":"UTC","GP_ID":"227960805","INCLINATION":"53.0526","OBJECT_NAME":"STARLINK-1974","LAUNCH_DATE":"2021-02-16","PERIAPSIS":"546.822","SITE":"AFETR","CLASSIFICATION_TYPE":"U","RCS_SIZE":"LARGE"}];
